storeName,type,address,district,latitude,longitude
매직헤어갤러리,,경기 성남시 분당구 미금로 48,,37.3392061,127.1160914
블루클럽분당구미정,,경기 성남시 분당구 미금로 48,,37.3392061,127.1160914
아모레,,경기 성남시 분당구 구미로9번길 17,,37.3398191,127.109895545492
성음화장품,,경기 성남시 분당구 돌마로90번길 4,,37.3496355,127.1116567
건강과행복의집,,경기 성남시 분당구 정자일로 55,,37.3507854,127.1063437
이안피부건강관리센타,,경기 성남시 분당구 정자일로 25,,37.35233955,127.105629875
슈와리뷰티살롱,,경기 성남시 분당구 정자일로 25,,37.35233955,127.105629875
블루클럽정자점,,경기 성남시 분당구 내정로17번길 4-11,,37.3627222,127.1139808911
차 에스테틱,,경기 성남시 분당구 내정로 29,,37.3627809,127.11450635
수진화장품,,경기 성남시 분당구 돌마로366번길 42,,37.3671671,127.1267389
피부비만,,경기 성남시 분당구 느티로 22,,37.3685417,127.1123812
CAC뷰티클럽,,경기 성남시 분당구 내정로 185,,37.368652,127.1147912
루디아미용실,,경기 성남시 분당구 내정로 94,,37.368652,127.1147912
G.아다인미용실,,경기 성남시 분당구 느티로77번길 3,,37.3688018,127.112987136975
박영익 지압.카이로프락틱,,경기 성남시 분당구 내정로166번길 43,,37.3717071,127.1211621
샬롬헤어샵,,경기 성남시 분당구 불정로376번길 31,,37.372353,127.1381386
헤어클래식,,경기 성남시 분당구 불정로 381,,37.37455335,127.136733208294
박민수헤어존,,경기 성남시 분당구 돌마로486번길 12,,37.3766777,127.1347595
세모스쿠알렌분당점,,경기 성남시 분당구 내정로165번길 38,,37.376703,127.116195
금호미용실,,경기 성남시 분당구 내정로165번길 38,,37.376703,127.116195
누뜨르헤어살롱,,경기 성남시 분당구 내정로165번길 50,,37.37710585,127.11543027409
에스앤유메디코스,,경기 성남시 분당구 황새울로200번길 9-7,,37.3773985,127.1115927
시즌글라스 서현점,,경기 성남시 분당구 중앙공원로40번길 8,,37.3794199,127.1316498
노블레스 헤어펌,,경기 성남시 분당구 중앙공원로40번길 4,,37.3794199,127.1316498
현숙코스메틱,,경기 성남시 분당구 중앙공원로 35,,37.382904,127.1322702
태평양아모레,,경기 성남시 분당구 황새울로312번길 20,,37.38405935,127.12261108667
서현사,,경기 성남시 분당구 서현로210번길 20,,37.3857429,127.124012151606
아모레(방문판매원),,경기 성남시 분당구 황새울로329번길 5,,37.38594125,127.121816349262
푸라나,,경기 성남시 분당구 서현로 177,,37.3862559,127.126711
스타웰,,경기 성남시 분당구 서현로 170,,37.3889891,127.1225311
아로마나투아,,경기 성남시 분당구 서현로 170,,37.3889891,127.1225311
헤어큐비즘,,경기 성남시 분당구 서현로 170,,37.3889891,127.1225311
왕희헤어필,,경기 성남시 분당구 양현로94번길 21,,37.3907172,127.1262382
강선생건강센터,,경기 성남시 분당구 탄천로 27,,37.3968866,127.1235399
카라꽃방,,경기 성남시 분당구 판교로 442,,37.4001937,127.0962964
고해숙헤어숍,,경기 성남시 분당구 판교로 434,,37.4001937,127.0962964
배순희코스메틱,,경기 성남시 분당구 성남대로916번길 11,,37.4109058,127.1299225
우연화장품,,경기 성남시 분당구 벌말로40번길 4,,37.41122225,127.1384976
김정문알로에야탑대리,,경기 성남시 분당구 성남대로916번길 5,,37.411549,127.1298651
관보종합화장품,,경기 성남시 분당구 성남대로916번길 5,,37.411549,127.1298651
성남분당지사,,경기 성남시 분당구 야탑로69번길 24-8,,37.4116259,127.1276371
권홍패밀리헤어,,경기 성남시 분당구 성남대로925번길 16,,37.41293935,127.127253014225
강미자헤어스페샬,,경기 성남시 분당구 내정로 152,,37.3717867,127.1187846
뷰티피부관리실,,경기 성남시 분당구 백현로144번길 17-4,,37.3721161,127.113094460292
김지숙헤어산책,,경기 성남시 분당구 장미로 101,,37.4134109,127.1331151
김가영헤어갤러리,,경기 성남시 분당구 내정로 94,,37.368652,127.1147912
아모레,,경기 성남시 분당구 백현로101번길 16,,37.3770069,127.1126882
김선미헤어,,경기 성남시 분당구 돌마로 67,,37.3714707,127.1249708
홍현희에스테틱,,경기 성남시 분당구 정자로 13,,37.3637209,127.1063246
김순오헤어뱅크,,경기 성남시 분당구 구미로 100,,37.3382008,127.1208271
아이앤헤어,,경기 성남시 분당구 불정로 119,,37.3762283,127.139504
미모아에스텍,,경기 성남시 분당구 돌마로 67,,37.3714707,127.1249708
스킨존,,경기 성남시 분당구 돌마로90번길 4,,37.3496355,127.1116567
노아헤어,,경기 성남시 분당구 매화로 39,,37.41110485,127.133559391434
수지헤어라인,,경기 성남시 분당구 분당로263번길 68,,37.3737593,127.1420751
김한주헤어콜렉션,,경기 성남시 분당구 분당로263번길 35,,37.3737593,127.1420751
한유진 헤어살롱,,경기 성남시 분당구 성남대로 165,,37.3801547,127.1187021
이순화헤어샵,,경기 성남시 분당구 이매로 125,,37.3915385,127.133367186272
미앤지미용실,,경기 성남시 분당구 성남대로2번길 6,,37.33525425,127.109906229041
헤어쇼,,경기 성남시 분당구 백현로101번길 24,,37.3776729,127.1131687
(주)비케이바이오,,경기 성남시 분당구 장미로 42,,37.4134109,127.1331151
카라헤어샵,,경기 성남시 분당구 양현로 509,,37.40638195,127.125969194169
연세미에스테틱,,경기 성남시 분당구 백현로101번길 24,,37.3776729,127.1131687
박정덕 비에스피,,경기 성남시 분당구 장안로52번길 13,,37.36997775,127.145732342233
엘레강스,,경기 성남시 분당구 내정로165번길 50,,37.37710585,127.11543027409
닥터지 에스테틱,,경기 성남시 분당구 서현로210번길 20,,37.3857429,127.124012151606
이정헤어팜,,경기 성남시 분당구 내정로173번길 11,,37.3759028,127.1178763
최은숙헤어갤러리,,경기 성남시 분당구 장미로156번길 5,,37.4124387,127.13817105
덴헤이뷰띠끄,,경기 성남시 분당구 발이봉남로7번길 1,,37.36530275,127.126169600951
화이트스킨케어,,경기 성남시 분당구 야탑로 64,,37.40943235,127.125917537507
블랙형,,경기 성남시 분당구 장미로132번길 11-3,,37.4123197,127.135596781404
남양트레이딩,,경기 성남시 분당구 성남대로779번길 54,,37.3991568,127.127474
아모레외판원,,경기 성남시 분당구 백현로101번길 16,,37.3770069,127.1126882
아모레외판,,경기 성남시 분당구 백현로101번길 16,,37.3770069,127.1126882
아모레카운셀러,,경기 성남시 분당구 백현로101번길 16,,37.3770069,127.1126882
스킨팰리스,,경기 성남시 분당구 백현로 97,,37.3770252,127.110418
리지엔피부관리실,,경기 성남시 분당구 성남대로 385,,37.3705166,127.107650300093
이노헤어,,경기 성남시 분당구 돌마로 481,,37.3751247,127.1300684
아모레,,경기 성남시 분당구 황새울로312번길 20,,37.38405935,127.12261108667
박소현 천연화장품 만들기,,경기 성남시 분당구 미금일로80번길 4,,37.34633885,127.11108575
헤어코디(한라미용실),,경기 성남시 분당구 정자일로 72,,37.3507854,127.1063437
나노헤어,,경기 성남시 분당구 백현로101번길 16,,37.3770069,127.1126882
나랑헤어샵,,경기 성남시 분당구 미금로 114,,37.3487698,127.117186748023
중구,,경기 성남시 분당구 내정로173번길 49,,37.3775217,127.115792
마이미용실,,경기 성남시 분당구 발이봉남로4번길 10,,37.36494035,127.124956538194
아모레카운셀러,,경기 성남시 분당구 황새울로312번길 20,,37.38405935,127.12261108667
이철헤어커커 (미금3호점),,경기 성남시 분당구 성남대로 165,,37.3801547,127.1187021
제이아르뷰,,경기 성남시 분당구 장미로100번길 6,,37.4129851,127.131769124598
아모레,,경기 성남시 분당구 황새울로312번길 20,,37.38405935,127.12261108667
유난희고은피부,,경기 성남시 분당구 돌마로 481,,37.3751247,127.1300684
밀리헤어,,경기 성남시 분당구 서현로180번길 13,,37.3878973,127.1228833
이은주미용실,,경기 성남시 분당구 불정로 219,,37.3762283,127.139504
알로에마임,,경기 성남시 분당구 야탑로 95,,37.4101687,127.129298099889
Queen,,경기 성남시 분당구 정자일로 55,,37.3507854,127.1063437
아모레 카운셀러,,경기 성남시 분당구 매화로 38,,37.41101655,127.134173433171
피부사랑,,경기 성남시 분당구 미금로 45,,37.3392061,127.1160914
미데르마에스테틱,,경기 성남시 분당구 성남대로331번길 3-3,,37.3653298,127.1077077
아름다운 사람들,,경기 성남시 분당구 장안로16번길 2,,37.36857605,127.141783388971
셀라뷰티케어,,경기 성남시 분당구 미금로 36,,37.3392061,127.1160914
에반젤뷰티센세이션,,경기 성남시 분당구 내정로165번길 38,,37.376703,127.116195
고운한지아트,,경기 성남시 분당구 장미로92번길 7-8,,37.41275595,127.131814894937
아름다운사람들의공간,,경기 성남시 분당구 발이봉남로7번길 1,,37.36530275,127.126169600951
뷰티 인 서인,,경기 성남시 분당구 정자일로 1,,37.3507854,127.1063437
미사랑,,경기 성남시 분당구 내정로166번길 43,,37.3717071,127.1211621
CAC 코리아화장품,,경기 성남시 분당구 문정로 130,,37.3836732,127.1505644
류현아헤어크리닉,,경기 성남시 분당구 판교로 430,,37.4001937,127.0962964
아리아스,,경기 성남시 분당구 불정로420번길 34-1,,37.3747651,127.143054056266
수화장품,,경기 성남시 분당구 불정로376번길 31,,37.372353,127.1381386
바디갤러리,,경기 성남시 분당구 돌마로 51,,37.3751247,127.1300684
아모레외판,,경기 성남시 분당구 매화로 38,,37.41101655,127.134173433171
마임 판교,,경기 성남시 분당구 양현로94번길 7,,37.3907172,127.1262382
마임분당 나오미,,경기 성남시 분당구 야탑로69번길 8,,37.4105208,127.126814899588
알로에마임 손순자,,경기 성남시 분당구 야탑로 95,,37.4101687,127.129298099889
끌리오헤어갤러리,,경기 성남시 분당구 구미로 50,,37.3438358,127.1275804
머리연출,,경기 성남시 분당구 양현로94번길 29,,37.3907172,127.1262382
헤어민스,,경기 성남시 분당구 이매로 13,,37.3949862,127.122144029037
미즈헤어,,경기 성남시 분당구 탄천로 35,,37.3968866,127.1235399
헤어갤러리,,경기 성남시 분당구 서현로371번길 7,,37.37741295,127.139672502598
오지영미용실,,경기 성남시 분당구 불정로386번길 10,,37.372939,127.138965
나이스가이,,경기 성남시 분당구 야탑로69번길 24-6,,37.411616,127.12730734958
마이미용재료,,경기 성남시 분당구 판교로 437,,37.4057256,127.1224341
준오헤어,,경기 성남시 분당구 돌마로 51,,37.3751247,127.1300684
이상희헤어갤러리,,경기 성남시 분당구 내정로166번길 7-6,,37.3717071,127.1211621
마임분당하은,,경기 성남시 분당구 야탑로 95,,37.4101687,127.129298099889
신혜정헤어갤러리,,경기 성남시 분당구 장미로 139,,37.4134109,127.1331151
아모레카운셀러,,경기 성남시 분당구 매화로 38,,37.41101655,127.134173433171
마중헤어살롱,,경기 성남시 분당구 매화로 53 ,,37.4122944,127.13362175
샤르망,,경기 성남시 분당구 황새울로200번길 22,,37.3762869,127.1125803
바른체형,,경기 성남시 분당구 황새울로 315,,37.3849405,127.1206052
유난희 고운피부,,경기 성남시 분당구 판교로 433,,37.4001937,127.0962964
라인 카이로프랙틱,,경기 성남시 분당구 돌마로486번길 12,,37.3766777,127.1347595
그린미용실,,경기 성남시 분당구 미금일로74번길 18,,37.3473902,127.111790899667
분당 아이조아,,경기 성남시 분당구 성남대로 912,,37.4109688,127.129252675074
마임분당야탑,,경기 성남시 분당구 성남대로925번길 11,,37.41201245,127.127265815525
엘린뷰티갤러리,,경기 성남시 분당구 성남대로 393,,37.3801547,127.1187021
레드도어,,경기 성남시 분당구 구미로 60,,37.3438358,127.1275804
연 헤어라인,,경기 성남시 분당구 미금로22번길 10,,37.3366942,127.1188513
마임분당아름,,경기 성남시 분당구 성남대로925번길 11,,37.41201245,127.127265815525
루이제 린,,경기 성남시 분당구 황새울로312번길 20,,37.38405935,127.12261108667
오지영미용실,,경기 성남시 분당구 장안로25번길 28,,37.370766,127.1434222
리라헤어샵,,경기 성남시 분당구 불정로 362,,37.3721902,127.1361805
베라헤어,,경기 성남시 분당구 장미로 108,,37.4132104,127.132724625348
종각이용원,,경기 성남시 분당구 내정로113번길 10,,37.3706995,127.11408015
블루클럽,,경기 성남시 분당구 분당로53번길 12,,37.38360495,127.121936889523
가모디자인폴레,,경기 성남시 분당구 수내로46번길 11,,37.379965,127.1168325
거부기미용실,,경기 성남시 분당구 백현로144번길 12-1,,37.37277425,127.1131897
스페셜스킨케어,,경기 성남시 분당구 돌마로 73,,37.3503495,127.1100823
아모레카운셀러,,경기 성남시 분당구 백현로101번길 16,,37.3770069,127.1126882
아모레카운셀러,,경기 성남시 분당구 백현로101번길 16,,37.3770069,127.1126882
아모레,,경기 성남시 분당구 백현로101번길 16,,37.3770069,127.1126882
아모레외판,,경기 성남시 분당구 백현로101번길 16,,37.3770069,127.1126882
아모레카운셀러,,경기 성남시 분당구 백현로101번길 16,,37.3770069,127.1126882
베스트헤어샵,,경기 성남시 분당구 양현로94번길 11,,37.3907172,127.1262382
(주)에제르,,경기 성남시 분당구 서현로 216,,37.3900856,127.1224063
꽁빠니드프로방스(아브뉴프랑점),,경기 성남시 분당구 동판교로177번길 25,,37.3979779,127.113838848005
나이스가이 (시범단지점),,경기 성남시 분당구 중앙공원로39번길 49,,37.3824209,127.1272947
남자만들기,,경기 성남시 분당구 백현로101번길 25,,37.3776729,127.1131687
박수진헤어,,경기 성남시 분당구 내정로119번길 24,,37.3724396,127.113555141519
헤어플어스,,경기 성남시 분당구 이매로 51,,37.3949701,127.126582044743
헤어사롱 비엔쥐,,경기 성남시 분당구 분당로 190,,37.385305,127.1182524
예쁜걸 미용실,,경기 성남시 분당구 내정로 29,,37.3627809,127.11450635
허니&준,,경기 성남시 분당구 성남대로 69,,37.34217265,127.108298002267
아모레카운셀러,,경기 성남시 분당구 백현로101번길 16,,37.3770069,127.1126882
니나 에스테틱,,경기 성남시 분당구 성남대로916번길 5,,37.411549,127.1298651
모젤헤어샵,,경기 성남시 분당구 양현로 220,,37.387706,127.1203123
우바헤어,,경기 성남시 분당구 판교역로10번길 27-1,,37.386136,127.1114262
경기상사,,경기 성남시 분당구 미금일로79번길 6,,37.3453294,127.11075425
헤어매직,,경기 성남시 분당구 내정로 24,,37.368652,127.1147912
하정우헤어,,경기 성남시 분당구 백현로101번길 12,,37.3776729,127.1131687
엘라에스테틱,,경기 성남시 분당구 분당로53번길 19,,37.383188,127.120908
티티사,,경기 성남시 분당구 정자일로 234,,37.3711706,127.1064575
아름다운 신화,,경기 성남시 분당구 야탑로 95,,37.4101687,127.129298099889
필라테스인뉴욕,,경기 성남시 분당구 정자일로 121,,37.3603053,127.105087580278
카라화장품,,경기 성남시 분당구 돌마로 478,,37.3714707,127.1249708
나이스가이,,경기 성남시 분당구 내정로174번길 6,,37.3726856,127.1215298
아모레 카운셀러,,경기 성남시 분당구 구미로9번길 7,,37.3389654,127.1100861
라비앙로즈,,경기 성남시 분당구 야탑로 106,,37.4095554,127.130594408216
신데렐라,,경기 성남시 분당구 돌마로 364,,37.3714707,127.1249708
체리빌사우나 스킨케어,,경기 성남시 분당구 구미로9번길 16,,37.3394745,127.110675074792
헤어아티스트엠,,경기 성남시 분당구 성남대로 151,,37.3801547,127.1187021
로즈마리,,경기 성남시 분당구 성남대로 51,,37.3406526,127.1084023
아모레 카운셀러,,경기 성남시 분당구 매화로 38,,37.41101655,127.134173433171
아모레카운셀러,,경기 성남시 분당구 매화로 38,,37.41101655,127.134173433171
미소근육조정원,,경기 성남시 분당구 내정로173번길 49,,37.3775217,127.115792
WI헤어샵,,경기 성남시 분당구 판교로 421,,37.4001937,127.0962964
노블레스,,경기 성남시 분당구 성남대로 165,,37.3801547,127.1187021
토니앤가이(프리미엄분당점),,경기 성남시 분당구 정자일로 135,,37.3622773,127.1052174
지아네일,,경기 성남시 분당구 내정로173번길 11,,37.3759028,127.1178763
정은자미용실,,경기 성남시 분당구 매화로 12,,37.411795,127.1339061
도도앤헤어,,경기 성남시 분당구 운중로 120,,37.3915395,127.0665087
J가발 전문점,,경기 성남시 분당구 성남대로 912,,37.4109688,127.129252675074
더네일,,경기 성남시 분당구 중앙공원로31번길 42,,37.3818329,127.1263572
제니스 글로벌,,경기 성남시 분당구 성남대로 165,,37.3801547,127.1187021
테라피안,,경기 성남시 분당구 성남대로172번길 12,,37.3513723,127.1110642
김신정헤어클럽,,경기 성남시 분당구 장미로 193,,37.4134109,127.1331151
이희헤어스튜디오,,경기 성남시 분당구 성남대로172번길 12,,37.3513723,127.1110642
주식회사 하스코스,,경기 성남시 분당구 장미로48번길 14,,37.4138261,127.1260624
네일팰리스,,경기 성남시 분당구 백현로101번길 13,,37.3776729,127.1131687
홍수연헤어미가,,경기 성남시 분당구 불곡남로4번길 1,,37.35882055,127.122604594168
윤태정헤어,,경기 성남시 분당구 돌마로 361,,37.3714707,127.1249708
샤론,,경기 성남시 분당구 장미로 78,,37.4135268,127.129583515439
핑크네일,,경기 성남시 분당구 돌마로486번길 12,,37.3766777,127.1347595
미아미용실,,경기 성남시 분당구 돌마로 80,,37.34967775,127.110416834726
전동님미용실,,경기 성남시 분당구 백현로 206,,37.3770252,127.110418
한지혜헤어살롬,,경기 성남시 분당구 중앙공원로40번길 8,,37.3794199,127.1316498
제이원코스메틱,,경기 성남시 분당구 발이봉남로15번길 8-1,,37.36490465,127.12746105904
헤어샵마리,,경기 성남시 분당구 내정로 24,,37.368652,127.1147912
피부미용(화장품),,경기 성남시 분당구 중앙공원로31번길 42,,37.3818329,127.1263572
뷰티호텔(정자점),,경기 성남시 분당구 정자일로 100,,37.3634087,127.105971
모터치분당점,,경기 성남시 분당구 미금일로 75,,37.3456109,127.111335874924
블루헤어샵,,경기 성남시 분당구 무지개로 144,,37.3392971,127.1187926
오라클코스메틱,,경기 성남시 분당구 서현로180번길 13,,37.3878973,127.1228833
퀸,,경기 성남시 분당구 중앙공원로 35,,37.382904,127.1322702
제이헤어샵,,경기 성남시 분당구 금곡로 263,,37.3549498,127.1124997
헤어제이,,경기 성남시 분당구 미금일로 55,,37.3476203,127.1072285
리가헤어샵,,경기 성남시 분당구 불정로376번길 37,,37.372353,127.1381386
에프앤코스,,경기 성남시 분당구 돌마로 80,,37.34967775,127.110416834726
리 헤어샵,,경기 성남시 분당구 중앙공원로 54,,37.382904,127.1322702
유스포뮬러네일아트,,경기 성남시 분당구 정자일로 121,,37.3603053,127.105087580278
노블레스 뷰티,,경기 성남시 분당구 황새울로214번길 8,,37.3779983,127.1127915
클래식댄스스포츠,,경기 성남시 분당구 대왕판교로 221,,37.3757272,127.1017939
문헤어,,경기 성남시 분당구 불정로 380,,37.37397475,127.136869799844
아모레 카운셀러,,경기 성남시 분당구 매화로 38,,37.41101655,127.134173433171
황진이머리방,,경기 성남시 분당구 장미로 189,,37.4134109,127.1331151
황후,,경기 성남시 분당구 정자일로 27,,37.3507854,127.1063437
닙비오레코스메틱,,경기 성남시 분당구 황새울로200번길 28,,37.37679535,127.113401645602
라벨르디자인,,경기 성남시 분당구 성남대로 393,,37.3801547,127.1187021
코코네일,,경기 성남시 분당구 성남대로925번길 16,,37.41293935,127.127253014225
블루엣,,경기 성남시 분당구 정자일로 192,,37.3673831,127.1063268
박영옥헤어클리닉,,경기 성남시 분당구 양현로166번길 20,,37.3991568,127.127474
라스파 정자점,,경기 성남시 분당구 정자일로 248,,37.3507854,127.1063437
웰메이드인터내셔널,,경기 성남시 분당구 백현로 97,,37.3770252,127.110418
김가이헤어,,경기 성남시 분당구 방아로 9,,37.39812465,127.13001880883
퀸즈헤어샵,,경기 성남시 분당구 내정로 55,,37.368652,127.1147912
미백천사,,경기 성남시 분당구 판교로 432,,37.4001937,127.0962964
뷰티헤어,,경기 성남시 분당구 중앙공원로 20,,37.382904,127.1322702
강민헤어드림,,경기 성남시 분당구 정자로 115,,37.3634094,127.1060879
CF헤어샵,,경기 성남시 분당구 장미로 189,,37.4134109,127.1331151
커리스훼어,,경기 성남시 분당구 정자로 144,,37.3627246,127.1201971
네일팜,,경기 성남시 분당구 돌마로 67,,37.3714707,127.1249708
분당남부 건강생활,,경기 성남시 분당구 성남대로 34,,37.3388751,127.109393
쟈니헤어,,경기 성남시 분당구 정자일로 55,,37.3507854,127.1063437
신영에스테틱,,경기 성남시 분당구 성남대로 926,,37.4125749,127.1292937
아모레카운셀러,,경기 성남시 분당구 매화로 38,,37.41101655,127.134173433171
(주)소풍엔,,경기 성남시 분당구 대왕판교로 397 ,,37.3757272,127.1017939
홍순옥헤어라인,,경기 성남시 분당구 벌말로40번길 5-1,,37.4115424,127.138766173727
아네스헤어아트,,경기 성남시 분당구 매화로 40,,37.4111476,127.134175774911
김지은헤어아트,,경기 성남시 분당구 정자로 143,,37.3634094,127.1060879
하나헤어아트,,경기 성남시 분당구 내정로174번길 42,,37.3726856,127.1215298
오은영K뷰티#,,경기 성남시 분당구 백현로101번길 17,,37.3776729,127.1131687
허쉬헤어,,경기 성남시 분당구 이매로 45,,37.39495645,127.125861974955
아모레카운셀러,,경기 성남시 분당구 매화로 38,,37.41101655,127.134173433171
뉴욕헤어,,경기 성남시 분당구 불정로386번길 10 ,,37.372939,127.138965
(주) 씨엠에스랩,,경기 성남시 분당구 판교로255번길 20,,37.403719,127.0990216
아름다운나라 피부과,,경기 성남시 분당구 황새울로 332,,37.385516,127.122269
현에스테틱,,경기 성남시 분당구 수내로 39,,37.3704945,127.1274171
티아모심는가발,,경기 성남시 분당구 성남대로 30,,37.3383841,127.1094768
민스헤어,,경기 성남시 분당구 돌마로 481,,37.3751247,127.1300684
여시미용실,,경기 성남시 분당구 미금일로 58,,37.3476203,127.1072285
헤어쥬니,,경기 성남시 분당구 돌마로356번길 3,,37.3681326,127.1246575
제이에스파마,,경기 성남시 분당구 산운로 126,,37.3924846,127.0750461
네일스테이션,,경기 성남시 분당구 중앙공원로40번길 4,,37.3794199,127.1316498
훈헤어클럽,,경기 성남시 분당구 중앙공원로39번길 7,,37.3824209,127.1272947
강명숙이용실,,경기 성남시 분당구 탄천로 95,,37.3968866,127.1235399
아모레카운셀러,,경기 성남시 분당구 매화로 38,,37.41101655,127.134173433171
미가헤어,,경기 성남시 분당구 돌마로486번길 6,,37.3766777,127.1347595
밀란마리스,,경기 성남시 분당구 황새울로 337,,37.3862667,127.1224051
루디아헤어갤러리,,경기 성남시 분당구 분당로263번길 24,,37.3737593,127.1420751
휴,,경기 성남시 분당구 성남대로926번길 6,,37.41214825,127.129858600114
헤어디자인 로엔,,경기 성남시 분당구 판교역로 98,,37.3844603,127.1121169
메타,,경기 성남시 분당구 수내로46번길 11,,37.379965,127.1168325
준헤어클럽,,경기 성남시 분당구 매화로38번길 10,,37.41072385,127.1347833
펄피부과,,경기 성남시 분당구 분당로 43,,37.3839239,127.1201766
세라헤어살롱,,경기 성남시 분당구 판교역로 102,,37.3844603,127.1121169
쉘모아스킨케어,,경기 성남시 분당구 불정로376번길 37,,37.372353,127.1381386
명이숙 케어샵 소울앤뷰티,,경기 성남시 분당구 성남대로 52,,37.3404548,127.1094002
김홍림스킨앤바디,,경기 성남시 분당구 방아로 22,,37.3983536,127.131232277617
마리헤어,,경기 성남시 분당구 성남대로 51,,37.3406526,127.1084023
박경민헤어,,경기 성남시 분당구 야탑로 245,,37.4072515,127.145926859574
사라오일카포,,경기 성남시 분당구 내정로165번길 38,,37.376703,127.116195
은성헤어샵,,경기 성남시 분당구 불곡로13번길 7,,37.35955735,127.124295704296
77번가헤어샵,,경기 성남시 분당구 운중로233번길 12,,37.39088555,127.0896047
마이안,,경기 성남시 분당구 성남대로 151,,37.3801547,127.1187021
연일상사,,경기 성남시 분당구 내정로173번길 49,,37.3775217,127.115792
초희에스테틱,,경기 성남시 분당구 대왕판교로 125,,37.3757272,127.1017939
미앤미,,경기 성남시 분당구 황새울로200번길 22,,37.3762869,127.1125803
헤어코코,,경기 성남시 분당구 중앙공원로 35,,37.382904,127.1322702
제제헤어,,경기 성남시 분당구 내정로 58,,37.368652,127.1147912
푸스올 분당점,,경기 성남시 분당구 분당로53번길 21,,37.3846843,127.1223944
Yes all,,경기 성남시 분당구 내정로 24,,37.368652,127.1147912
크리스마스뷰티,,경기 성남시 분당구 서현로 170,,37.3889891,127.1225311
르네헤어카페,,경기 성남시 분당구 장미로132번길 3-5,,37.4131105,127.13568335
헤어졸리,,경기 성남시 분당구 판교원로82번길 30,,37.3864129,127.073088862817
아쿠아헤어,,경기 성남시 분당구 중앙공원로 53,,37.382904,127.1322702
강호사,,경기 성남시 분당구 불정로 179,,37.3762283,127.139504
포맨,,경기 성남시 분당구 운중로113번길 12-8,,37.3923724,127.076018549553
어제와다른내일,,경기 성남시 분당구 정자일로 100,,37.3634087,127.105971
정현주헤어아트,,경기 성남시 분당구 내정로17번길 15,,37.36154555,127.11303445
레드퀸,,경기 성남시 분당구 성남대로925번길 16,,37.41293935,127.127253014225
블루밍헤어,,경기 성남시 분당구 중앙공원로40번길 8,,37.3794199,127.1316498
마리안느,,경기 성남시 분당구 정자일로 192,,37.3673831,127.1063268
헤어매니저,,경기 성남시 분당구 벌말로 47,,37.41216695,127.13821676779
정준헤어,,경기 성남시 분당구 서판교로 165,,37.387402,127.097493
한방발모연구회(SOKA),,경기 성남시 분당구 내정로 152,,37.3717867,127.1187846
노블헤어,,경기 성남시 분당구 방아로 34,,37.3984772,127.132390248
김구헤어샵,,경기 성남시 분당구 중앙공원로 35,,37.382904,127.1322702
마리헤어,,경기 성남시 분당구 판교로 441,,37.4001937,127.0962964
웰라미용실,,경기 성남시 분당구 동판교로 122,,37.4019933,127.1168905
압구정 피부관리,,경기 성남시 분당구 장미로 189,,37.4134109,127.1331151
웰빙휴,,경기 성남시 분당구 느티로 16,,37.3683222,127.1061568
아이린스킨,,경기 성남시 분당구 성남대로 345,,37.3801547,127.1187021
씨에치홀딩스,,경기 성남시 분당구 황새울로 224,,37.3821997,127.1172027
진,,경기 성남시 분당구 불정로376번길 37,,37.372353,127.1381386
데이릴리스킨케어,,경기 성남시 분당구 백현로101번길 17,,37.3776729,127.1131687
타마시(TAMASI),,경기 성남시 분당구 대왕판교로644번길 65,,37.3998365,127.115681
라임헤어,,경기 성남시 분당구 중앙공원로40번길 42,,37.3794199,127.1316498
라벨라헤어,,경기 성남시 분당구 장미로 86,,37.41350345,127.130234856198
다이아나미용실,,경기 성남시 분당구 내정로173번길 11,,37.3759028,127.1178763
빈 스킨케어,,경기 성남시 분당구 서현로 170,,37.3889891,127.1225311
Haru(하루),,경기 성남시 분당구 성남대로 165,,37.3801547,127.1187021
하연헤어,,경기 성남시 분당구 돌마로486번길 12,,37.3766777,127.1347595
yes헤어숍,,경기 성남시 분당구 판교역로2번길 36,,37.38644165,127.1118486
프로방스헤어,,경기 성남시 분당구 운중로113번길 12-2,,37.3928285,127.0760733
(주)웰코리아,,경기 성남시 분당구 탄천상로 164 ,,37.3425934,127.1089428
스칼렛 미용타운,,경기 성남시 분당구 내정로 52,,37.368652,127.1147912
헤어폼,,경기 성남시 분당구 야탑로 244,,37.4060718,127.1500974
올댓헤어샵,,경기 성남시 분당구 탄천로 59,,37.3968866,127.1235399
헤어 aA(에이에이),,경기 성남시 분당구 성남대로171번길 17,,37.3510603,127.1070722
플로라(flora),,경기 성남시 분당구 정자로 112,,37.3634319,127.1100345
홀리카홀리카 미금점,,경기 성남시 분당구 성남대로 165,,37.3801547,127.1187021
오즈네일아뜰리에,,경기 성남시 분당구 불정로386번길 10,,37.372939,127.138965
김수정뷰티클럽분당점,,경기 성남시 분당구 야탑로 95,,37.4101687,127.129298099889
아이비헤어,,경기 성남시 분당구 중앙공원로39번길 7,,37.3824209,127.1272947
케이처 헤어,,경기 성남시 분당구 미금로 39,,37.3392061,127.1160914
닥터큐 에스테틱,,경기 성남시 분당구 성남대로144번길 14,,37.34855425,127.1106212
문병석헤어,,경기 성남시 분당구 백현로101번길 16,,37.3770069,127.1126882
가이소리미용실,,경기 성남시 분당구 불정로 179,,37.3762283,127.139504
CURLY HAIR(컬리헤어),,경기 성남시 분당구 성남대로916번길 7,,37.41114735,127.129858475224
허니콤헤어,,경기 성남시 분당구 성남대로 165,,37.3801547,127.1187021
카라헤어,,경기 성남시 분당구 정자일로 240,,37.37159885,127.10627648931
IN THE FRAME(인더프레임),,경기 성남시 분당구 판교로25번길 20,,37.38998415,127.083129572204
헤어가든 엘리자베스,,경기 성남시 분당구 운중로125번길 14,,37.3930924,127.077403374785
닥터수 오리역점,,경기 성남시 분당구 성남대로 34,,37.3388751,127.109393
마본헤어,,경기 성남시 분당구 판교공원로3길 30 ,,37.3912334,127.0903806
이노헤어,,경기 성남시 분당구 황새울로258번길 43,,37.3783159,127.1154959
로티헤어,,경기 성남시 분당구 서판교로44번길 3-6,,37.39100645,127.098342962233
이가자헤어비스,,경기 성남시 분당구 서현로210번길 2,,37.3863737,127.1254126
백합미용실,,경기 성남시 분당구 성남대로144번길 12,,37.34855235,127.1103445
라마스떼,,경기 성남시 분당구 판교로 477,,37.40573595,127.12692365
네이쳐 리퍼블릭(서현로데오점),,경기 성남시 분당구 분당로53번길 12,,37.38360495,127.121936889523
에버네일(EVER NAIL),,경기 성남시 분당구 내정로173번길 11,,37.3759028,127.1178763
미즈헤어김성희,,경기 성남시 분당구 장미로 55,,37.4134109,127.1331151
김아라미용실,,경기 성남시 분당구 불곡남로13번길 9,,37.35886295,127.123736453497
주식회사 태영,,경기 성남시 분당구 서현로 170,,37.3889891,127.1225311
쭈네일,,경기 성남시 분당구 중앙공원로 35,,37.382904,127.1322702
스칼렛분당점,,경기 성남시 분당구 중앙공원로31번길 42,,37.3818329,127.1263572
퀸즈네일,,경기 성남시 분당구 정자일로6번길 13,,37.3505652,127.1079449
이나경에스테틱,,경기 성남시 분당구 돌마로476번길 31,,37.3748653,127.135838253562
이지헤어,,경기 성남시 분당구 정자일로 55104-103,,37.36085115,127.105574406207
슈이치,,경기 성남시 분당구 정자일로 192,,37.3673831,127.1063268
노블,,경기 성남시 분당구 미금일로90번길 36-5,,37.3491675,127.1099258
조이헤어,,경기 성남시 분당구 장미로 78209,,37.4134109,127.1331151
오행골반,,경기 성남시 분당구 내정로165번길 38,,37.376703,127.116195
월드헤어,,경기 성남시 분당구 중앙공원로 35,,37.382904,127.1322702
레몬트리,,경기 성남시 분당구 성남대로 511-144,,37.3362811,127.1088848
루시헤어,,경기 성남시 분당구 불정로376번길 31,,37.372353,127.1381386
르뮤,,경기 성남시 분당구 판교역로14번길 20,,37.3854204,127.1115095
사공현 헤어,,경기 성남시 분당구 야탑로69번길 24-8,,37.4116259,127.1276371
345헤어살롱 분당서현점,,경기 성남시 분당구 황새울로360번길 21201,,37.3863737,127.1254126
맵쉬(MAPSHE),,경기 성남시 분당구 성남대로331번길 3-3,,37.3653298,127.1077077
이영 헤어라인,,경기 성남시 분당구 분당로263번길 13,,37.3708771,127.1375699
어바웃뷰티,,경기 성남시 분당구 판교역로192번길 22,,37.3980299,127.1120303
미인본가(분당 야탑점),,경기 성남시 분당구 성남대로916번길 5,,37.411549,127.1298651
워너비,,경기 성남시 분당구 장미로48번길 10222,,37.4138261,127.1260624
마드레,,경기 성남시 분당구 내정로166번길 7-6,,37.3717071,127.1211621
MUST,,경기 성남시 분당구 서현로 170,,37.3889891,127.1225311
예미원피부과,,경기 성남시 분당구 정자일로213번길 19,,37.3693628,127.1053201
퀸즈헤나,,경기 성남시 분당구 돌마로 47,,37.3714707,127.1249708
애나헤어,,경기 성남시 분당구 판교로 444,,37.4001937,127.0962964
수,,경기 성남시 분당구 성남대로926번길 18,,37.41311035,127.12973055
이지아헤어(eJiahhair),,경기 성남시 분당구 정자일로 15,,37.3507854,127.1063437
헤어작,,경기 성남시 분당구 백현로101번길 23,,37.3776729,127.1131687
프리위그,,경기 성남시 분당구 성남대로916번길 5,,37.411549,127.1298651
사라 뷰티풀 살롱,,경기 성남시 분당구 성남대로43번길 10,,37.3398577,127.1078482
소울뷰티디자인,,경기 성남시 분당구 백현로101번길 21,,37.3776729,127.1131687
박승철헤어스투디오오리역점,,경기 성남시 분당구 성남대로 45,,37.3801547,127.1187021
쉬즈,,경기 성남시 분당구 성남대로 393,,37.3801547,127.1187021
리틀포레스트헤어,,경기 성남시 분당구 내정로173번길 11,,37.3759028,127.1178763
Hair up,,경기 성남시 분당구 미금로 177,,37.3392061,127.1160914
수헤어샵,,경기 성남시 분당구 이매로 13,,37.3949862,127.122144029037
아름화장품,,경기 성남시 분당구 판교로 430,,37.4001937,127.0962964
뷰티화장품,,경기 성남시 분당구 성남대로916번길 7,,37.41114735,127.129858475224
헤어명작,,경기 성남시 분당구 성남대로 449,,37.3752361,127.1107693
태후사랑 미금점,,경기 성남시 분당구 미금로 251,,37.3392061,127.1160914
라푼젤,,경기 성남시 분당구 내정로166번길 43,,37.3717071,127.1211621
수기 건강센터,,경기 성남시 분당구 정자일로 248,,37.3507854,127.1063437
어퍼컷,,경기 성남시 분당구 판교로 372,,37.4036572,127.115644157015
그린미용실,,경기 성남시 분당구 백현로 206,,37.3770252,127.110418
쑥향기,,경기 성남시 분당구 불정로376번길 31,,37.372353,127.1381386
진헤어,,경기 성남시 분당구 미금일로 21,,37.3455523,127.1172619
리안헤어미금점,,경기 성남시 분당구 미금일로74번길 12-1,,37.3468422,127.11178325
맨(Men) 컷트클럽,,경기 성남시 분당구 매화로48번길 8-1,,37.4116548,127.13485479995
삼성메디코스(주),,경기 성남시 분당구 운중로 146,,37.3915395,127.0665087
(주)엘지생활건강비욘드서현역점,,경기 성남시 분당구 서현로210번길 20,,37.3857429,127.124012151606
명품스킨결,,경기 성남시 분당구 서판교로 160,,37.4002695,127.094815207106
비앤씨 헤어그룹,,경기 성남시 분당구 미금로 251,,37.3392061,127.1160914
헤어팜,,경기 성남시 분당구 정자일로 46,,37.3507854,127.1063437
스마트,,경기 성남시 분당구 판교원로82번길 30,,37.3864129,127.073088862817
오선희토탈뷰티케어,,경기 성남시 분당구 돌마로366번길 8,,37.3689432,127.125233
이현헤어커커,,경기 성남시 분당구 대왕판교로606번길 58,,37.3960191,127.1133198
갤러리공인중개사사무소,,경기 성남시 분당구 성남대로 449,,37.3752361,127.1107693
숲,,경기 성남시 분당구 성남대로779번길 52,,37.3992096,127.1214206
네일스케치,,경기 성남시 분당구 서현로210번길 20 ,,37.3857429,127.124012151606
크로바화장품,,경기 성남시 분당구 내정로174번길 42,,37.3726856,127.1215298
준오헤어,,경기 성남시 분당구 황새울로342번길 23,,37.3868189,127.1246289
이철헤어커커(미금2호점),,경기 성남시 분당구 돌마로 68,,37.34970275,127.109558349771
더마존(Derma Zone)코리아,,경기 성남시 분당구 서현로 170,,37.3889891,127.1225311
촉촉아트,,경기 성남시 분당구 돌마로522번길 6,,37.3793914,127.13709355
이디엘헤어,,경기 성남시 분당구 서현로210번길 20,,37.3857429,127.124012151606
정성순헤어모드,,경기 성남시 분당구 벌말로 47,,37.41216695,127.13821676779
미쉘,,경기 성남시 분당구 대왕판교로606번길 58,,37.3960191,127.1133198
머리못하는집,,경기 성남시 분당구 느티로87번길 6,,37.3691625,127.1144371
디오네일,,경기 성남시 분당구 성남대로 393,,37.3801547,127.1187021
기분좋은날천연염색방,,경기 성남시 분당구 내정로166번길 7-6,,37.3717071,127.1211621
헤어아티션,,경기 성남시 분당구 판교역로14번길 20,,37.3854204,127.1115095
지니스왁싱 태닝,,경기 성남시 분당구 성남대로 151,,37.3801547,127.1187021
머리이야기 헤어샵,,경기 성남시 분당구 양현로94번길 11,,37.3907172,127.1262382
보떼헤어,,경기 성남시 분당구 운중로125번길 14-11,,37.3928802,127.07827735635
수 스킨케어,,경기 성남시 분당구 판교로 393,,37.4001937,127.0962964
네일홀릭,,경기 성남시 분당구 매화로47번길 6-3,,37.4119212,127.133236174472
라임피부관리실,,경기 성남시 분당구 미금로 45,,37.3392061,127.1160914
마스터핏,,경기 성남시 분당구 황새울로 315,,37.3849405,127.1206052
헤어아티션,,경기 성남시 분당구 돌마로366번길 42,,37.3671671,127.1267389
준오헤어,,경기 성남시 분당구 서현로210번길 17,,37.385447,127.124512548743
아이브로우바by. 이연 분당점,,경기 성남시 분당구 황새울로200번길 34,,37.3779983,127.1127915
B21에스테틱,,경기 성남시 분당구 수내로 54,,37.3704945,127.1274171
마임플러스,,경기 성남시 분당구 돌마로 361,,37.3714707,127.1249708
캣앤뷰티,,경기 성남시 분당구 분당로359번길 2-5,,37.36825605,127.145810857705
제이(J)브로우하우스,,경기 성남시 분당구 야탑로139번길 6-18,,37.41000295,127.135344949951
피오나헤어,,경기 성남시 분당구 동판교로 91,,37.4019933,127.1168905
캣츠네일,,경기 성남시 분당구 정자일로 177,,37.3661423,127.1053883
파워셀,,경기 성남시 분당구 서현로210번길 20,,37.3857429,127.124012151606
조은날메이크업,,경기 성남시 분당구 야탑로 95,,37.4101687,127.129298099889
사라헤어비스,,경기 성남시 분당구 중앙공원로 20,,37.382904,127.1322702
독일로하스모,,경기 성남시 분당구 대왕판교로606번길 39,,37.39646985,127.111530495443
보스 클럽,,경기 성남시 분당구 장미로148번길 5,,37.41258105,127.137409244998
하루헤어,,경기 성남시 분당구 탄천상로151번길 20,,37.34160035,127.106723904167
제이이레모,,경기 성남시 분당구 서현로 170,,37.3889891,127.1225311
힙헤어,,경기 성남시 분당구 황새울로258번길 32,,37.3807148,127.1165736
마이네일,,경기 성남시 분당구 내정로 185,,37.368652,127.1147912
모던헤어,,경기 성남시 분당구 백현로144번길 17-6,,37.37191255,127.11312065
헤어스토리,,경기 성남시 분당구 돌마로486번길 12,,37.3766777,127.1347595
내안에 힐링스파,,경기 성남시 분당구 백현로101번길 20,,37.3772638,127.1130736
꾸아퓨헤어,,경기 성남시 분당구 운중로125번길 4-7,,37.39251685,127.07761555
제이원코스케틱 (J-ONE COSMETIC),,경기 성남시 분당구 발이봉로3번길 4,,37.36606195,127.12695155
위드채(with Chae),,경기 성남시 분당구 성남대로 151,,37.3801547,127.1187021
김소영뷰티클리닉,,경기 성남시 분당구 돌마로 51,,37.3751247,127.1300684
봉자네일,,경기 성남시 분당구 성남대로 151,,37.3801547,127.1187021
오바코 이조움 힐링센타,,경기 성남시 분당구 정자일로 1,,37.3507854,127.1063437
한길글로넷 주식회사,,경기 성남시 분당구 성남대로 295,,37.3623018,127.1075738
키웰,,경기 성남시 분당구 황새울로360번길 24,,37.3863737,127.1254126
다인,,경기 성남시 분당구 판교역로192번길 22,,37.3980299,127.1120303
더 나은 에스테틱,,경기 성남시 분당구 벌말로49번길 14-1,,37.41265635,127.136770372755
카이뷰티쏘울 (Beauty Soul),,경기 성남시 분당구 정자일로 27,,37.3507854,127.1063437
소피아로렌헤어,,경기 성남시 분당구 판교원로82번길 30,,37.3864129,127.073088862817
헤어앤스타일,,경기 성남시 분당구 서판교로 147,,37.3994069,127.0958012
앙샹떼,,경기 성남시 분당구 성남대로331번길 8,,37.36589525,127.106672696634
르페이스(LE FACE),,경기 성남시 분당구 운중로233번길 13,,37.39114575,127.089476623277
(주)에뛰드 에스쁘아 분당 서현점,,경기 성남시 분당구 분당로53번길 13,,37.3841245,127.121802152712
바비엔,,경기 성남시 분당구 서현로 204,,37.3870954,127.1253659
아스카네일,,경기 성남시 분당구 하오개로 360,,37.3909953,127.0591638
뉴블루,,경기 성남시 분당구 장미로 101,,37.4134109,127.1331151
(주)자연인 판교지점,,경기 성남시 분당구 대왕판교로606번길 58,,37.3960191,127.1133198
구인자헤어,,경기 성남시 분당구 양현로 138,,37.41645405,127.124900949902
이진화헤어아트,,경기 성남시 분당구 성남대로779번길 56,,37.3991568,127.127474
태후사랑헤어샵,,경기 성남시 분당구 불정로 219,,37.3762283,127.139504
아이디헤어분당수내점,,경기 성남시 분당구 백현로101번길 21,,37.3776729,127.1131687
엠에스헤어,,경기 성남시 분당구 미금로 23,,37.3392061,127.1160914
헤어체크,,경기 성남시 분당구 내정로 186,,37.368652,127.1147912
분당천사네일,,경기 성남시 분당구 돌마로 73,,37.3503495,127.1100823
헤어알렌느,,경기 성남시 분당구 돌마로 47,,37.3714707,127.1249708
분당 네일몰,,경기 성남시 분당구 분당로53번길 9,,37.3836702,127.1213813
마히아 (magia),,경기 성남시 분당구 운중로 129,,37.3915395,127.0665087
리안헤어미금역2호점,,경기 성남시 분당구 성남대로 165 ,,37.3801547,127.1187021
정민헤어,,경기 성남시 분당구 야탑로 239,,37.4074971,127.145183391572
헤어팜팜,,경기 성남시 분당구 매화로55번길 5,,37.41253195,127.1332303
더페이스샵,,경기 성남시 분당구 서현로210번길 14,,37.3862355,127.1245943
크레용헤어,,경기 성남시 분당구 운중로 115,,37.3915395,127.0665087
조안 헤어,,경기 성남시 분당구 구미로 115,,37.3401858,127.120959
awesome nail,,경기 성남시 분당구 불곡남로 10,,37.3584669,127.122879834032
류 헤어카페,,경기 성남시 분당구 미금일로 24,,37.3476203,127.1072285
준헤어샵,,경기 성남시 분당구 양현로94번길 11,,37.3907172,127.1262382
네일바이모모,,경기 성남시 분당구 운중로 129 ,,37.3915395,127.0665087
헤어쿡,,경기 성남시 분당구 동판교로 212,,37.4019933,127.1168905
휴 테라피,,경기 성남시 분당구 탄천로 27,,37.3968866,127.1235399
헬레나 (Helena),,경기 성남시 분당구 불정로 381,,37.37455335,127.136733208294
태후사랑 아름점,,경기 성남시 분당구 판교로 436,,37.4001937,127.0962964
라엘스킨엔바디,,경기 성남시 분당구 서판교로 154,,37.39978585,127.095190580369
여우,,경기 성남시 분당구 내정로165번길 38,,37.376703,127.116195
옹글동글 (Ongles d'ongles),,경기 성남시 분당구 정자일로 177,,37.3661423,127.1053883
헤어살롱본,,경기 성남시 분당구 미금일로 58,,37.3476203,127.1072285
래쉬퀸,,경기 성남시 분당구 판교로 430,,37.4001937,127.0962964
라피네헤어,,경기 성남시 분당구 불정로 260,,37.36673135,127.127380796156
듀디헤어,,경기 성남시 분당구 방아로23번길 5,,37.398867,127.13120015
헤어밸리,,경기 성남시 분당구 성남대로 151,,37.3801547,127.1187021
자헨네이처헤어,,경기 성남시 분당구 불정로420번길 9-4,,37.3761935,127.1411326
보니타헤어,,경기 성남시 분당구 성남대로 165,,37.3801547,127.1187021
헤나스토리,,경기 성남시 분당구 돌마로 364,,37.3714707,127.1249708
닥터스칼프,,경기 성남시 분당구 돌마로 75,,37.3714707,127.1249708
이도헤어,,경기 성남시 분당구 내정로113번길 4,,37.370654,127.114806295043
문서진헤어뱅크,,경기 성남시 분당구 양현로94번길 7,,37.3907172,127.1262382
토탈뷰티,,경기 성남시 분당구 장안로25번길 28,,37.370766,127.1434222
테브로헤어살롱(TAEBRO hairsalon),,경기 성남시 분당구 판교로25번길 6-8,,37.39013895,127.08494585
에벤에셀,,경기 성남시 분당구 판교로 478,,37.4001937,127.0962964
르살롱드쌔미(Le Salon de Sammy),,경기 성남시 분당구 수내로 181,,37.3704945,127.1274171
태후사랑,,경기 성남시 분당구 벌말로40번길 4,,37.41122225,127.1384976
더프로젝트살롱에이,,경기 성남시 분당구 매화로 53,,37.4122944,127.13362175
씨에스(CS)이용원,,경기 성남시 분당구 미금로 246,,37.3392061,127.1160914
박승철 위그스튜디오 분당 서현점,,경기 성남시 분당구 황새울로 315,,37.3849405,127.1206052
셀레브헤어,,경기 성남시 분당구 구미로173번길 82,,37.3471907,127.1241432
스타네일,,경기 성남시 분당구 내정로174번길 42,,37.3726856,127.1215298
네일락,,경기 성남시 분당구 성남대로916번길 5,,37.411549,127.1298651
레인보우 네일,,경기 성남시 분당구 수내로192번길 25,,37.3705385,127.1274738
벨라마노스킨케어,,경기 성남시 분당구 성남대로 168,,37.3801547,127.1187021
오호살롱,,경기 성남시 분당구 황새울로214번길 8,,37.3779983,127.1127915
마리네일,,경기 성남시 분당구 정자일로 121,,37.3603053,127.105087580278
정재연 헤어,,경기 성남시 분당구 발이봉남로7번길 2,,37.365145,127.12634055
예인헤어갤러리,,경기 성남시 분당구 야탑로 72,,37.4095692,127.12681405
리안헤어 정자엠코헤리츠점,,경기 성남시 분당구 정자일로 136,,37.3621883,127.106566
마젤네일&왁싱,,경기 성남시 분당구 서현로257번길 11,,37.3852252,127.1302857
수미용실,,경기 성남시 분당구 정자일로 15 ,,37.3507854,127.1063437
손을 그리다,,경기 성남시 분당구 산운로160번길 20,,37.39222585,127.078777707508
345헤어살롱,,경기 성남시 분당구 야탑로81번길 10,,37.41056645,127.12820774958
골드스완,,경기 성남시 분당구 분당로53번길 21,,37.3846843,127.1223944
기가코스메틱,,경기 성남시 분당구 궁내로7번길 2,,37.3681706,127.1001478
목련마을 머리방,,경기 성남시 분당구 야탑로231번길 38,,37.4082234,127.1470292
아이리헤어클럽,,경기 성남시 분당구 탄천상로 164,,37.3425934,127.1089428
쉬z갈바데일리,,경기 성남시 분당구 내정로173번길 11,,37.3759028,127.1178763
베이징 체형관리,,경기 성남시 분당구 운중로 123,,37.3919865,127.0769612
라벤더헤어,,경기 성남시 분당구 서판교로 164,,37.4006196,127.094521357785
나이스가이,,경기 성남시 분당구 장미로122번길 6,,37.4127385,127.1342543
주비스 헤어,,경기 성남시 분당구 운중로 115,,37.3915395,127.0665087
써니탠,,경기 성남시 분당구 성남대로 165,,37.3801547,127.1187021
바비앤네일,,경기 성남시 분당구 운중로 135,,37.3915395,127.0665087
준오헤어,,경기 성남시 분당구 분당로53번길 20,,37.383188,127.120908
연우헤어,,경기 성남시 분당구 불정로 361,,37.373499,127.1345189
PEOPLE(피플),,경기 성남시 분당구 황새울로360번길 21,,37.38560625,127.125668364575
네모리스 헤어 스투디오,,경기 성남시 분당구 판교대장로6길 10,,37.36677,127.068393948832
루미크,,경기 성남시 분당구 분당로53번길 21,,37.3846843,127.1223944
다인,,경기 성남시 분당구 서현로 184,,37.3883885,127.1239635
태후사랑 수내1동점,,경기 성남시 분당구 내정로165번길 38,,37.376703,127.116195
금홍,,경기 성남시 분당구 야탑로69번길 24-6,,37.411616,127.12730734958
태후사랑 구미점,,경기 성남시 분당구 미금일로74번길 24,,37.3479226,127.11175777559
나비코코,,경기 성남시 분당구 판교로 700,,37.4001937,127.0962964
언니네 네일샵,,경기 성남시 분당구 성남대로 170,,37.3511851,127.1095096
이포크드류,,경기 성남시 분당구 느티로 2,,37.3679741,127.1049557
국제피앤비 주식회사,,경기 성남시 분당구 야탑로 96-8,,37.4093353,127.1292609
스파더고,,경기 성남시 분당구 운중로125번길 14-12,,37.3926255,127.078025924202
더왁싱,,경기 성남시 분당구 판교역로192번길 16,,37.3977453,127.1114334
마법속눈썹,,경기 성남시 분당구 백현로101번길 17,,37.3776729,127.1131687
민헤어디자인,,경기 성남시 분당구 미금로 184,,37.3392061,127.1160914
이나스 헤어샵,,경기 성남시 분당구 벌말로 45,,37.4119758,127.138171781158
더 헤어,,경기 성남시 분당구 내정로17번길 4-11,,37.3627222,127.1139808911
지니헤어,,경기 성남시 분당구 내정로 185,,37.368652,127.1147912
아스픽코스메디,,경기 성남시 분당구 서현로237번길 4,,37.3854422,127.1285475
살롱드 쁘와,,경기 성남시 분당구 수내로 39,,37.3704945,127.1274171
박승철헤어스투디오(정자점),,경기 성남시 분당구 정자일로 234,,37.3711706,127.1064575
더풋샵 야탑,,경기 성남시 분당구 야탑로75번길 9,,37.4108267,127.1268226
올가스킨케어,,경기 성남시 분당구 서판교로 165,,37.387402,127.097493
샤이나 헤어,,경기 성남시 분당구 서판교로44번길 5,,37.3908391,127.09850015
이사벨 코스메틱,,경기 성남시 분당구 정자일로 132 ,,37.3507854,127.1063437
네일브라운,,경기 성남시 분당구 돌마로 52,,37.3714707,127.1249708
버블플러스,,경기 성남시 분당구 운중로233번길 17-5,,37.39140685,127.089120394255
누베왁싱(Nube waxing),,경기 성남시 분당구 성남대로331번길 8,,37.36589525,127.106672696634
마샬뷰티살롱,,경기 성남시 분당구 백현로101번길 29,,37.3780833,127.1134491
네일이끌림,,경기 성남시 분당구 정자일로 197,,37.3680129,127.1055153
블로썸라운지,,경기 성남시 분당구 서현로 216,,37.3900856,127.1224063
테라의향기,,경기 성남시 분당구 돌마로 80,,37.34967775,127.110416834726
그리다,,경기 성남시 분당구 정자일로 248,,37.3507854,127.1063437
천수코스메틱 주식회사,,경기 성남시 분당구 불정로376번길 37,,37.372353,127.1381386
피플,,경기 성남시 분당구 황새울로360번길 21,,37.38560625,127.125668364575
루오나 에스테틱,,경기 성남시 분당구 돌마로 47 ,,37.3714707,127.1249708
네이쳐 브로우 바,,경기 성남시 분당구 정자일로 121,,37.3603053,127.105087580278
마리헤어,,경기 성남시 분당구 불정로 168,,37.3596332,127.123188749876
티나스타일,,경기 성남시 분당구 성남대로 345,,37.3801547,127.1187021
네일 리(Nail Re:),,경기 성남시 분당구 내정로165번길 38,,37.376703,127.116195
이미정헤어뱅크,,경기 성남시 분당구 미금로 218,,37.3392061,127.1160914
벨라헤어,,경기 성남시 분당구 돌마로366번길 40,,37.3689432,127.125233
토니모리 서현점,,경기 성남시 분당구 서현로210번길 14,,37.3862355,127.1245943
윤헤어샵,,경기 성남시 분당구 정자일로 46,,37.3507854,127.1063437
그레이스,,경기 성남시 분당구 판교로 478,,37.4001937,127.0962964
동산미용실,,경기 성남시 분당구 성남대로779번길 54,,37.3991568,127.127474
지젤 (Jeegel),,경기 성남시 분당구 돌마로 481,,37.3751247,127.1300684
쁘띠헤어,,경기 성남시 분당구 운중로 253,,37.38952525,127.091218166702
구피샵,,경기 성남시 분당구 성남대로 165,,37.3801547,127.1187021
황금약손,,경기 성남시 분당구 미금로 45,,37.3392061,127.1160914
슈가랩 (SUGAR LAB),,경기 성남시 분당구 성남대로 51,,37.3406526,127.1084023
앙리윤헤어펌,,경기 성남시 분당구 판교로 430,,37.4001937,127.0962964
자끄데상쥬,,경기 성남시 분당구 백현로 97,,37.3770252,127.110418
어바웃비,,경기 성남시 분당구 정자일로 177,,37.3661423,127.1053883
뷰티플러스,,경기 성남시 분당구 불정로71번길 3,,37.36043845,127.11232755
엘림,,경기 성남시 분당구 황새울로 224,,37.3821997,127.1172027
위그포유,,경기 성남시 분당구 성남대로925번길 16,,37.41293935,127.127253014225
홍미,,경기 성남시 분당구 정자일로 121,,37.3603053,127.105087580278
유리네일,,경기 성남시 분당구 황새울로 315,,37.3849405,127.1206052
휴,,경기 성남시 분당구 느티로 16,,37.3683222,127.1061568
아이디헤어 분당수내2호점,,경기 성남시 분당구 백현로101번길 24,,37.3776729,127.1131687
명품손테라피,,경기 성남시 분당구 판교로 433,,37.4001937,127.0962964
이가자헤어비스,,경기 성남시 분당구 불정로 134,,37.3762283,127.139504
프롬유헤어(from u hair),,경기 성남시 분당구 내정로173번길 49,,37.3775217,127.115792
최승주헤어 뷰티랩,,경기 성남시 분당구 돌마로 51,,37.3751247,127.1300684
온헤어(ON HAIR),,경기 성남시 분당구 황새울로18번길 12,,37.3615237,127.111252799351
아르네일,,경기 성남시 분당구 돌마로 364,,37.3714707,127.1249708
쉬즈헤어,,경기 성남시 분당구 돌마로 67,,37.3714707,127.1249708
씨엘헤어,,경기 성남시 분당구 산운로 98,,37.3931328,127.0800638
킹스모,,경기 성남시 분당구 황새울로 325,,37.3821997,127.1172027
쁘띠쟈르당헤어살롱,,경기 성남시 분당구 성남대로 393,,37.3801547,127.1187021
살롱드269,,경기 성남시 분당구 분당로53번길 15,,37.3843573,127.1219826
찬스모,,경기 성남시 분당구 성남대로 170,,37.3511851,127.1095096
주블리헤어,,경기 성남시 분당구 장미로 78,,37.4135268,127.129583515439
블랭크유헤어디자인하우스,,경기 성남시 분당구 성남대로 349,,37.3801547,127.1187021
이뉴어,,경기 성남시 분당구 성남대로331번길 8,,37.36589525,127.106672696634
손톱하는날,,경기 성남시 분당구 성남대로926번길 6,,37.41214825,127.129858600114
린지,,경기 성남시 분당구 성남대로331번길 3-9,,37.3648454,127.10772195
(주)이니스프리,,경기 성남시 분당구 판교역로 145,,37.3844603,127.1121169
네일수다,,경기 성남시 분당구 성남대로779번길 48,,37.3994616,127.1232796
락타이,,경기 성남시 분당구 백현로101번길 12,,37.3776729,127.1131687
엔젤손눈썹왁싱,,경기 성남시 분당구 장미로 78,,37.4135268,127.129583515439
시커먼스,,경기 성남시 분당구 서현로 204,,37.3870954,127.1253659
프라시스,,경기 성남시 분당구 야탑로69번길 18,,37.411615,127.1267728
미로화장품,,경기 성남시 분당구 불정로376번길 37,,37.372353,127.1381386
조안헤어,,경기 성남시 분당구 발이봉로11번길 8-1,,37.36579625,127.1279519
네일드잇,,경기 성남시 분당구 내정로 172,,37.3736535,127.119964
라뷰티코아,,경기 성남시 분당구 돌마로 52,,37.3714707,127.1249708
네이처컬렉션 분당서현점 (주)엘지생활건강,,경기 성남시 분당구 서현로210번길 20,,37.3857429,127.124012151606
파리클라라 정자점,,경기 성남시 분당구 정자일로 121 ,,37.3603053,127.105087580278
황금이용원,,경기 성남시 분당구 중앙공원로39번길 7,,37.3824209,127.1272947
주식회사 랑벨,,경기 성남시 분당구 산운로160번길 16-3,,37.3924464,127.0789649
주식회사 웨트러스트,,경기 성남시 분당구 정자일로 27,,37.3507854,127.1063437
아티스틱(ARTISTIC),,경기 성남시 분당구 대왕판교로606번길 58,,37.3960191,127.1133198
색갈은짙은갈색,,경기 성남시 분당구 정자일로 197,,37.3680129,127.1055153
약손,,경기 성남시 분당구 이매로 16,,37.3938109,127.1288433
탑,,경기 성남시 분당구 내정로173번길 11 ,,37.3759028,127.1178763
임은미헤어샵,,경기 성남시 분당구 내정로173번길 5 ,,37.3759028,127.1178763
르나뷰티헤어살롱,,경기 성남시 분당구 황새울로258번길 42,,37.3807148,127.1165736
라에스테틱,,경기 성남시 분당구 정자일로 121 ,,37.3603053,127.105087580278
엠제이헤어,,경기 성남시 분당구 양현로 220,,37.387706,127.1203123
코즈헤어,,경기 성남시 분당구 성남대로 52,,37.3404548,127.1094002
이지영헤어룩,,경기 성남시 분당구 내정로173번길 11,,37.3759028,127.1178763
휴라인,,경기 성남시 분당구 구미로192번길 4,,37.34355855,127.1276796
왁싱아이(Waxing Y),,경기 성남시 분당구 성남대로926번길 6,,37.41214825,127.129858600114
라즐리윤(yoon)메이크업,,경기 성남시 분당구 성남대로926번길 12,,37.412845,127.1298603
아르누보,,경기 성남시 분당구 정자일로 121,,37.3603053,127.105087580278
네일해,,경기 성남시 분당구 정자로 112,,37.3634319,127.1100345
블루밍살롱,,경기 성남시 분당구 황새울로258번길 32,,37.3807148,127.1165736
로즈왁싱&테라피,,경기 성남시 분당구 분당내곡로 155,,37.3975804,127.112580014879
휴,,경기 성남시 분당구 느티로 27,,37.3685417,127.1123812
바바라뷰티,,경기 성남시 분당구 서현로 170,,37.3889891,127.1225311
헤어컬러링,,경기 성남시 분당구 중앙공원로40번길 8,,37.3794199,127.1316498
참좋은 피부경락,,경기 성남시 분당구 서현로 170,,37.3889891,127.1225311
살롱드수,,경기 성남시 분당구 정자일로 55,,37.3507854,127.1063437
헤어워커스,,경기 성남시 분당구 정자일로 239 ,,37.3507854,127.1063437
헤어컬러스토리,,경기 성남시 분당구 정자일로 72 ,,37.3507854,127.1063437
살롱드라이아바나,,경기 성남시 분당구 야탑로139번길 22,,37.41150565,127.1344887
손하우스,,경기 성남시 분당구 구미로 16,,37.3377132,127.1109897
황실족도,,경기 성남시 분당구 황새울로351번길 10,,37.3876633,127.1231527
시도헤어,,경기 성남시 분당구 돌마로356번길 3,,37.3681326,127.1246575
가이바이빗헤어제이,,경기 성남시 분당구 성남대로 934,,37.41316,127.1292866
이노팜 분당총판,,경기 성남시 분당구 성남대로916번길 5,,37.411549,127.1298651
봄헤어,,경기 성남시 분당구 동판교로52번길 19-17,,37.3858778,127.115001636337
미니네일,,경기 성남시 분당구 판교역로 230 ,,37.3844603,127.1121169
와이오유뷰티살롱,,경기 성남시 분당구 판교역로18번길 18,,37.3853543,127.1110401
다온헤어,,경기 성남시 분당구 미금일로 22,,37.3476203,127.1072285
네일셀럽,,경기 성남시 분당구 성남대로 151,,37.3801547,127.1187021
워너비531,,경기 성남시 분당구 성남대로 151,,37.3801547,127.1187021
네일그라스,,경기 성남시 분당구 성남대로 151 ,,37.3801547,127.1187021
라메드,,경기 성남시 분당구 성남대로 151,,37.3801547,127.1187021
프롬미분당점,,경기 성남시 분당구 돌마로 46,,37.3714707,127.1249708
세이지영 주식회사,,경기도 성남시 분당구 탄천상로 164,,37.3425934,127.1089428
강봄헤어,,경기도 성남시 분당구 미금일로 58,,37.3476203,127.1072285
